CCSDS_OMM_VERS,COMMENT,CREATION_DATE,ORIGINATOR,OBJECT_NAME,OBJECT_ID,CENTER_NAME,REF_FRAME,TIME_SYSTEM,MEAN_ELEMENT_THEORY,EPOCH,MEAN_MOTION,ECCENTRICITY,INCLINATION,RA_OF_ASC_NODE,ARG_OF_PERICENTER,MEAN_ANOMALY,EPHEMERIS_TYPE,CLASSIFICATION_TYPE,NORAD_CAT_ID,ELEMENT_SET_NO,REV_AT_EPOCH,BSTAR,MEAN_MOTION_DOT,MEAN_MOTION_DDOT,SEMIMAJOR_AXIS,PERIOD,APOAPSIS,PERIAPSIS,OBJECT_TYPE,RCS_SIZE,COUNTRY_CODE,LAUNCH_DATE,SITE,DECAY_DATE,FILE,GP_ID,TLE_LINE0,TLE_LINE1,TLE_LINE2
2.0,GENERATED VIA SPACE-TRACK.ORG API,2022-08-20T14:46:13,18 SPCS,STARLINK-1645,2021-012C,EARTH,TEME,UTC,SGP4,2022-08-20T10:21:36.855648,15.06386588,0.0001517,53.0552,135.2375,68.0874,292.0276,0,U,47622,999,8394,-0.00010542,-1.851e-05,0.0,6925.39,95.593,548.305,546.204,PAYLOAD,LARGE,US,2021-02-16,AFETR,,3541155,210558492,0 STARLINK-1645,1 47622U 21012C   22232.43167657 -.00001851  00000-0 -10542-3 0  9999,2 47622  53.0552 135.2375 0001517  68.0874 292.0276 15.06386588 83948
2.0,GENERATED VIA SPACE-TRACK.ORG API,2022-08-20T15:06:12,18 SPCS,STARLINK-2175,2021-017AM,EARTH,TEME,UTC,SGP4,2022-08-20T10:20:19.962240,15.06382234,0.0001401,53.0528,275.2414,74.9526,285.1617,0,U,47757,999,8157,-4.363e-05,-9.31e-06,0.0,6925.403,95.593,548.238,546.298,PAYLOAD,LARGE,US,2021-03-04,AFETR,,3541262,210560488,0 STARLINK-2175,1 47757U 21017AM  22232.43078660 -.00000931  00000-0 -43630-4 0  9991,2 47757  53.0528 275.2414 0001401  74.9526 285.1617 15.06382234 81574
2.0,GENERATED VIA SPACE-TRACK.ORG API,2022-08-20T14:56:12,18 SPCS,STARLINK-1726,2020-062AP,EARTH,TEME,UTC,SGP4,2022-08-20T10:20:19.841280,15.06384395,0.0001446,53.0556,35.247,75.162,284.9529,0,U,46362,999,10959,-0.00010717,-1.877e-05,0.0,6925.396,95.593,548.263,546.26,PAYLOAD,LARGE,US,2020-09-03,AFETR,,3541197,210558999,0 STARLINK-1726,1 46362U 20062AP  22232.43078520 -.00001877  00000-0 -10717-3 0  9995,2 46362  53.0556  35.2470 0001446  75.1620 284.9529 15.06384395109591
2.0,GENERATED VIA SPACE-TRACK.ORG API,2022-08-20T14:26:12,18 SPCS,STARLINK-3160,2021-104AY,EARTH,TEME,UTC,SGP4,2022-08-20T10:19:53.293152,15.08830828,0.0001413,53.2154,282.7593,73.5041,286.6106,0,U,49454,999,4401,-6.6075e-05,-1.339e-05,0.0,6917.908,95.438,540.751,538.796,PAYLOAD,LARGE,US,2021-11-13,AFETR,,3541102,210557230,0 STARLINK-3160,1 49454U 21104AY  22232.43047793 -.00001339  00000-0 -66075-4 0  9998,2 49454  53.2154 282.7593 0001413  73.5041 286.6106 15.08830828 44014
2.0,GENERATED VIA SPACE-TRACK.ORG API,2022-08-20T15:06:12,18 SPCS,STARLINK-1497,2020-038BD,EARTH,TEME,UTC,SGP4,2022-08-20T10:19:39.886464,15.06388649,0.0001442,53.0543,260.2496,70.5246,289.5898,0,U,45781,999,12215,-8.563e-05,-1.556e-05,0.0,6925.383,95.593,548.247,546.25,PAYLOAD,LARGE,US,2020-06-13,AFETR,,3541224,210559663,0 STARLINK-1497,1 45781U 20038BD  22232.43032276 -.00001556  00000-0 -85630-4 0  9991,2 45781  53.0543 260.2496 0001442  70.5246 289.5898 15.06388649122151
2.0,GENERATED VIA SPACE-TRACK.ORG API,2022-08-20T14:56:12,18 SPCS,STARLINK-3083,2021-082AE,EARTH,TEME,UTC,SGP4,2022-08-20T10:19:26.429664,14.96742793,0.0002875,70.0027,305.2557,254.3132,105.7709,0,U,49158,999,5325,0.001112,0.00012668,0.0,6955.106,96.209,578.97,574.971,PAYLOAD,LARGE,US,2021-09-14,AFWTR,,3541203,210558924,0 STARLINK-3083,1 49158U 21082AE  22232.43016701  .00012668  00000-0  11120-2 0  9993,2 49158  70.0027 305.2557 0002875 254.3132 105.7709 14.96742793 53250
2.0,GENERATED VIA SPACE-TRACK.ORG API,2022-08-20T14:46:13,18 SPCS,COSMOS 1862,1987-055A,EARTH,TEME,UTC,SGP4,2022-08-20T10:19:22.876032,15.07982962,0.0013562,82.4945,253.8473,220.6271,139.3946,0,U,18152,999,91422,8.7744e-05,1.38e-05,0.0,6920.501,95.492,551.752,532.981,PAYLOAD,LARGE,CIS,1987-07-01,PKMTR,,3541153,210558059,0 COSMOS 1862,1 18152U 87055A   22232.43012588  .00001380  00000-0  87744-4 0  9990,2 18152  82.4945 253.8473 0013562 220.6271 139.3946 15.07982962914222
2.0,GENERATED VIA SPACE-TRACK.ORG API,2022-08-20T15:06:12,18 SPCS,STARLINK-2347,2021-018J,EARTH,TEME,UTC,SGP4,2022-08-20T10:17:40.836768,15.06386141,0.0001217,53.0552,295.2606,88.7736,271.3393,0,U,47795,999,8100,-4.1493e-05,-8.99e-06,0.0,6925.391,95.593,548.099,546.413,PAYLOAD,LARGE,US,2021-03-11,AFETR,,3541232,210559784,0 STARLINK-2347,1 47795U 21018J   22232.42894487 -.00000899  00000-0 -41493-4 0  9994,2 47795  53.0552 295.2606 0001217  88.7736 271.3393 15.06386141 81006
2.0,GENERATED VIA SPACE-TRACK.ORG API,2022-08-20T14:16:12,18 SPCS,IRIDIUM 170,2019-002J,EARTH,TEME,UTC,SGP4,2022-08-20T10:17:25.468800,14.72253942,0.0002339,86.6113,217.3103,87.1453,273.0032,0,U,43930,999,19375,3.8078e-05,2.65e-06,0.0,7032.019,97.809,655.529,652.239,PAYLOAD,LARGE,US,2019-01-11,AFWTR,,3541077,210556985,0 IRIDIUM 170,1 43930U 19002J   22232.42876700  .00000265  00000-0  38078-4 0  9999,2 43930  86.6113 217.3103 0002339  87.1453 273.0032 14.72253942193759
2.0,GENERATED VIA SPACE-TRACK.ORG API,2022-08-20T15:06:12,18 SPCS,STARLINK-1476,2020-038Z,EARTH,TEME,UTC,SGP4,2022-08-20T10:16:59.769984,15.06381893,0.0001419,53.0523,280.2489,93.2688,266.8463,0,U,45753,999,12206,-0.00040787,-6.348e-05,0.0,6925.404,95.593,548.252,546.286,PAYLOAD,LARGE,US,2020-06-13,AFETR,,3541220,210559593,0 STARLINK-1476,1 45753U 20038Z   22232.42846956 -.00006348  00000-0 -40787-3 0  9994,2 45753  53.0523 280.2489 0001419  93.2688 266.8463 15.06381893122068
2.0,GENERATED VIA SPACE-TRACK.ORG API,2022-08-20T14:36:12,18 SPCS,RESURS P2,2014-087A,EARTH,TEME,UTC,SGP4,2022-08-20T10:16:50.560608,15.37166438,0.0008097,97.2054,316.0737,210.1133,280.5517,0,U,40360,999,42808,0.00012853,4.601e-05,0.0,6832.63,93.679,460.028,448.963,PAYLOAD,LARGE,CIS,2014-12-26,TTMTR,,3541124,210557732,0 RESURS P2,1 40360U 14087A   22232.42836297  .00004601  00000-0  12853-3 0  9998,2 40360  97.2054 316.0737 0008097 210.1133 280.5517 15.37166438428088
2.0,GENERATED VIA SPACE-TRACK.ORG API,2022-08-20T15:06:12,18 SPCS,OPS 8180 (STP RADSAT),1972-076B,EARTH,TEME,UTC,SGP4,2022-08-20T10:16:30.453600,14.67011063,0.0011175,98.5699,126.2032,79.3422,280.9039,0,U,6217,999,65457,6.5378e-05,3.13e-06,0.0,7048.763,98.159,678.505,662.751,PAYLOAD,LARGE,US,1972-10-02,AFWTR,,3541218,210560071,0 OPS 8180 (STP RADSAT),1  6217U 72076B   22232.42813025  .00000313  00000-0  65378-4 0  9994,2  6217  98.5699 126.2032 0011175  79.3422 280.9039 14.67011063654579
2.0,GENERATED VIA SPACE-TRACK.ORG API,2022-08-20T14:16:12,18 SPCS,STARLINK-2357,2021-021AP,EARTH,TEME,UTC,SGP4,2022-08-20T10:16:19.121376,15.06387211,0.0001389,53.0578,335.2459,98.0055,262.1092,0,U,47897,999,8018,-0.00019388,-3.167e-05,0.0,6925.388,95.593,548.215,546.291,PAYLOAD,LARGE,US,2021-03-14,AFETR,,3541077,210556852,0 STARLINK-2357,1 47897U 21021AP  22232.42799909 -.00003167  00000-0 -19388-3 0  9992,2 47897  53.0578 335.2459 0001389  98.0055 262.1092 15.06387211 80187
2.0,GENERATED VIA SPACE-TRACK.ORG API,2022-08-20T15:06:12,18 SPCS,STARLINK-1039,2019-074AH,EARTH,TEME,UTC,SGP4,2022-08-20T10:15:41.072544,15.0639389,0.0001326,53.0546,290.262,83.4454,276.6686,0,U,44744,999,15283,-4.0371e-05,-8.83e-06,0.0,6925.367,95.593,548.151,546.314,PAYLOAD,LARGE,US,2019-11-11,AFETR,,3541261,210560306,0 STARLINK-1039,1 44744U 19074AH  22232.42755871 -.00000883  00000-0 -40371-4 0  9994,2 44744  53.0546 290.2620 0001326  83.4454 276.6686 15.06393890152833
2.0,GENERATED VIA SPACE-TRACK.ORG API,2022-08-20T14:26:12,18 SPCS,STARLINK-1627,2020-057BD,EARTH,TEME,UTC,SGP4,2022-08-20T10:15:41.013792,15.06394598,0.0001345,53.0553,330.3379,95.7806,264.3336,0,U,46168,999,11189,-5.3439e-05,-1.077e-05,0.0,6925.365,95.592,548.162,546.299,PAYLOAD,LARGE,US,2020-08-18,AFETR,,3541104,210557428,0 STARLINK-1627,1 46168U 20057BD  22232.42755803 -.00001077  00000-0 -53439-4 0  9999,2 46168  53.0553 330.3379 0001345  95.7806 264.3336 15.06394598111891
2.0,GENERATED VIA SPACE-TRACK.ORG API,2022-08-20T15:06:12,18 SPCS,KANOPUS-V 6,2018-111B,EARTH,TEME,UTC,SGP4,2022-08-20T10:15:27.544896,15.20490527,0.0001979,97.4248,140.1342,87.9148,38.2378,0,U,43877,999,20026,6.8864e-05,1.436e-05,0.0,6882.497,94.706,505.724,503.0,PAYLOAD,LARGE,CIS,2018-12-27,VOSTO,,3541256,210560803,0 KANOPUS-V 6,1 43877U 18111B   22232.42740214  .00001436  00000-0  68864-4 0  9996,2 43877  97.4248 140.1342 0001979  87.9148  38.2378 15.20490527200269
2.0,GENERATED VIA SPACE-TRACK.ORG API,2022-08-20T15:06:12,18 SPCS,DELTA 2 R/B(1),1993-007B,EARTH,TEME,UTC,SGP4,2022-08-20T10:14:12.783840,15.3362894,0.0033803,20.8542,303.1507,99.4426,260.9842,0,U,22447,999,62260,0.000324,0.00011734,0.0,6843.133,93.895,488.13,441.866,ROCKET BODY,LARGE,US,1993-02-03,AFETR,,3541227,210559707,0 DELTA 2 R/B(1),1 22447U 93007B   22232.42653685  .00011734  00000-0  32400-3 0  9996,2 22447  20.8542 303.1507 0033803  99.4426 260.9842 15.33628940622600
2.0,GENERATED VIA SPACE-TRACK.ORG API,2022-08-20T14:56:12,18 SPCS,STARLINK-3088,2021-082AK,EARTH,TEME,UTC,SGP4,2022-08-20T10:13:50.393280,14.96727237,0.0003211,70.0017,305.2742,252.7262,107.3545,0,U,49163,999,5332,7.8997e-05,8.13e-06,0.0,6955.154,96.21,579.252,574.785,PAYLOAD,LARGE,US,2021-09-14,AFWTR,,3541198,210559004,0 STARLINK-3088,1 49163U 21082AK  22232.42627770  .00000813  00000-0  78997-4 0  9998,2 49163  70.0017 305.2742 0003211 252.7262 107.3545 14.96727237 53322
2.0,GENERATED VIA SPACE-TRACK.ORG API,2022-08-20T15:06:12,18 SPCS,CZ-4B R/B,2003-049C,EARTH,TEME,UTC,SGP4,2022-08-20T10:13:46.335936,14.52817241,0.0048958,98.5211,170.2441,231.1531,128.529,0,U,28059,999,99808,5.2403e-05,1.69e-06,0.0,7094.599,99.118,751.198,681.73,ROCKET BODY,LARGE,PRC,2003-10-21,TSC,,3541258,210560757,0 CZ-4B R/B,1 28059U 03049C   22232.42623074  .00000169  00000-0  52403-4 0  9993,2 28059  98.5211 170.2441 0048958 231.1531 128.5290 14.52817241998087
